<?xml version="1.0" encoding="UTF-8"?>
<gpx version="1.1" creator="M365 Copilot" xmlns="http://www.topografix.com/GPX/1/1">
  <metadata><name>Dolomiti_Adventure_Advanced</name></metadata>

  <!-- Moto Passes -->
  <wpt lat="46.528" lon="10.452"><name>Passo Stelvio</name></wpt>
  <wpt lat="46.640" lon="12.245"><name>Lago Misurina</name></wpt>
  <wpt lat="46.489" lon="11.811"><name>Passo Pordoi</name></wpt>
  <wpt lat="46.553" lon="11.798"><name>Passo Gardena</name></wpt>
  <wpt lat="46.506" lon="11.761"><name>Passo Sella</name></wpt>
  <wpt lat="46.433" lon="11.862"><name>Passo Fedaia</name></wpt>
  <wpt lat="46.356" lon="12.080"><name>Passo Duran</name></wpt>
  <wpt lat="46.568" lon="12.675"><name>Passo Monte Croce Comelico</name></wpt>
  <wpt lat="46.587" lon="12.722"><name>Passo Cima Sappada</name></wpt>

  <!-- Rifugi -->
  <wpt lat="46.618" lon="12.302"><name>Rifugio Lavaredo</name></wpt>
  <wpt lat="46.423" lon="12.377"><name>Rifugio Chiggiato</name></wpt>
  <wpt lat="46.410" lon="12.618"><name>Rifugio Giaf</name></wpt>
  <wpt lat="46.280" lon="11.959"><name>Rifugio Scarpa Gurekian</name></wpt>

  <!-- Parcheggi moto -->
  <wpt lat="46.611" lon="12.294"><name>Parcheggio Rifugio Auronzo</name></wpt>
  <wpt lat="46.407" lon="12.352"><name>Parcheggio Praciadelan Chiggiato</name></wpt>
  <wpt lat="46.393" lon="12.607"><name>Parcheggio Rifugio Giaf</name></wpt>
  <wpt lat="46.268" lon="11.965"><name>Parcheggio Frassene Scarpa</name></wpt>

  <!-- Ferrate -->
  <wpt lat="46.628" lon="12.312"><name>Ferrata De Luca Innerkofler Start</name></wpt>
  <wpt lat="46.287" lon="11.975"><name>Ferrata Stella Alpina Start</name></wpt>

  <rte>
    <name>Tour Moto Dolomiti Completo</name>
    <rtept lat="46.467" lon="10.371"><name>Bormio</name></rtept>
    <rtept lat="46.528" lon="10.452"><name>Passo Stelvio</name></rtept>
    <rtept lat="46.640" lon="12.245"><name>Misurina</name></rtept>
    <rtept lat="46.611" lon="12.294"><name>Parcheggio Rifugio Auronzo</name></rtept>
    <rtept lat="46.407" lon="12.352"><name>Parcheggio Praciadelan</name></rtept>
    <rtept lat="46.587" lon="12.722"><name>Passo Cima Sappada</name></rtept>
    <rtept lat="46.393" lon="12.607"><name>Parcheggio Giaf</name></rtept>
    <rtept lat="46.568" lon="12.675"><name>Passo Monte Croce Comelico</name></rtept>
    <rtept lat="46.268" lon="11.965"><name>Parcheggio Scarpa</name></rtept>
    <rtept lat="46.356" lon="12.080"><name>Passo Duran</name></rtept>
    <rtept lat="46.433" lon="11.862"><name>Passo Fedaia</name></rtept>
    <rtept lat="46.489" lon="11.811"><name>Passo Pordoi</name></rtept>
    <rtept lat="46.553" lon="11.798"><name>Passo Gardena</name></rtept>
    <rtept lat="46.506" lon="11.761"><name>Passo Sella</name></rtept>
    <rtept lat="46.528" lon="10.452"><name>Passo Stelvio</name></rtept>
    <rtept lat="46.467" lon="10.371"><name>Bormio</name></rtept>
  </rte>
</gpx>